satname,norad_id,inclination_deg,eccentricity,mean_motion_rev_per_day,perigee_km,apogee_km,l1,l2
STARLINK-1143,45179,53.0476,0.0005758,15.59130126,386.2761801786264,394.0705664045099,1 45179U 20012B   26055.91668981  .00168249  00000+0  20741-2 0  9992,2 45179  53.0476  32.2304 0005758  44.6512 105.9470 15.59130126  5974
STARLINK-1202,45183,53.1623,0.0001597,15.30189677,474.1514069619843,476.3403774577564,1 45183U 20012F   26055.82150428 -.00000461  00000+0 -34406-5 0  9998,2 45183  53.1623  99.0210 0001597  84.7844 275.3339 15.30189677332985
STARLINK-1216,45185,53.16,9.92e-05,15.30190295,474.5641915532824,475.9239023529981,1 45185U 20012H   26055.81201911  .00000186  00000+0  18390-4 0  9998,2 45185  53.1600  99.0473 0000992 106.1985 253.9125 15.30190295332923
STARLINK-1225,45187,53.1602,0.0001352,15.3018793,474.3245304283155,476.1776865728534,1 45187U 20012K   26055.80892692 -.00000526  00000+0 -56451-5 0  9992,2 45187  53.1602  99.5029 0001352  96.6451 263.4704 15.30187930332966
STARLINK-1230,45189,53.1614,0.0001534,15.3019682,474.17325867859836,476.27587000653966,1 45189U 20012M   26055.81842534  .00001272  00000+0  55064-4 0  9990,2 45189  53.1614  99.5149 0001534  85.0029 275.1146 15.30196820330190
STARLINK-1234,45190,53.0458,0.0004533,15.58967256,387.57648014114693,393.71305769284754,1 45190U 20012N   26055.65138982  .00114253  00000+0  14291-2 0  9998,2 45190  53.0458  28.8775 0004533 291.9988  68.0542 15.58967256333844
STARLINK-1269,45197,53.1616,0.0001462,15.30187338,474.25091052979406,476.2548417295757,1 45197U 20012V   26055.35803420 -.00000825  00000+0 -15717-4 0  9995,2 45197  53.1616 101.5142 0001462 100.8940 259.2226 15.30187338332879
STARLINK-1154,45198,53.0498,0.0007122,15.43697338,430.3559134145071,440.0608425709197,1 45198U 20012W   26055.42329368  .00030521  00000+0  67197-3 0  9990,2 45198  53.0498  73.1706 0007122  34.0217 326.1244 15.43697338333247
STARLINK-1199,45201,53.1477,0.0001294,15.27540738,482.27881041618,484.0545158041932,1 45201U 20012Z   26055.91668981  .00929125  00000+0  31507-1 0  9997,2 45201  53.1477  83.0904 0001294  89.5215 321.5430 15.27540738  5837
STARLINK-1209,45206,53.0484,0.0006183,15.48338026,417.38329885534404,425.7918382568205,1 45206U 20012AE  26055.26037350  .00050553  00000+0  94193-3 0  9992,2 45206  53.0484  37.8555 0006183 249.9493 110.0849 15.48338026332836
STARLINK-1210,45207,53.0095,0.0005024,16.10142701,243.12366054149606,249.78004742197663,1 45207U 20012AF  26055.86915233  .00228720  36753-4  23633-3 0  9997,2 45207  53.0095 325.4435 0005024 168.5783 191.5365 16.10142701334842
STARLINK-1231,45212,53.0497,0.0004188,15.1980141,503.55701855582083,509.32354048514753,1 45212U 20012AL  26055.33575691  .00037248  00000+0  17235-2 0  9999,2 45212  53.0497  77.0541 0004188  29.8298 330.2935 15.19801410333191
STARLINK-1271,45217,53.1387,0.0001003,15.25942894,487.2668934059002,488.64423157393594,1 45217U 20012AR  26055.91668981  .01460947  00000+0  51423-1 0  9996,2 45217  53.1387  83.2363 0001003  52.5602 357.8686 15.25942894  5789
STARLINK-1191,45222,53.1605,0.0001442,15.31030786,471.7477181103013,473.7235097721632,1 45222U 20012AW  26055.73725814  .00000502  00000+0  28462-4 0  9997,2 45222  53.1605  58.9897 0001442  63.4861 296.6287 15.31030786333533
STARLINK-1212,45223,53.0511,0.0005804,15.49460028,414.3599526929265,422.24926211079946,1 45223U 20012AX  26055.91668981  .00145285  00000+0  25570-2 0  9992,2 45223  53.0511  51.4386 0005804  55.1394  58.4532 15.49460028  5881
STARLINK-1215,45225,53.1609,0.0001276,15.30189832,474.3709378046542,476.1199210006371,1 45225U 20012AZ  26055.72337226 -.00002051  00000+0 -57146-4 0  9999,2 45225  53.1609  58.5312 0001276  91.5752 268.5395 15.30189832333493
STARLINK-1221,45227,53.0669,0.0002724,15.41396186,440.1299902239534,443.845594210753,1 45227U 20012BB  26055.75140250  .00016310  00000+0  39324-3 0  9991,2 45227  53.0669 330.9002 0002724  21.2252 338.8865 15.41396186334710
STARLINK-1222,45228,53.0562,0.0003813,15.48631696,418.135504316072,423.3203186975861,1 45228U 20012BC  26055.39458111  .00024843  00000+0  46406-3 0  9999,2 45228  53.0562  46.5098 0003813  47.9145 312.2186 15.48631696333563
STARLINK-1226,45229,53.1609,0.0001198,15.31024398,471.93393335534165,473.5754069995164,1 45229U 20012BD  26055.42748464 -.00000386  00000+0 -78692-6 0  9990,2 45229  53.1609  60.2300 0001198  79.1084 281.0052 15.31024398333381
STARLINK-1227,45230,53.1601,0.0001331,15.31043855,471.78478186868415,473.60847378041035,1 45230U 20012BE  26055.71623706  .00002337  00000+0  88751-4 0  9996,2 45230  53.1601  59.2040 0001331  91.1036 269.0117 15.31043855333549
STARLINK-1246,45235,53.1599,0.0001587,15.30183594,474.1764204683268,476.3516899632523,1 45235U 20012BK  26055.62871930 -.00000812  00000+0 -15277-4 0  9996,2 45235  53.1599  99.9152 0001587  81.8354 278.2827 15.30183594332977
STARLINK-1270,45237,53.051,0.0004165,15.44521086,429.9488804680368,435.6223790186141,1 45237U 20012BM  26055.26284740  .00086306  00000+0  18194-2 0  9994,2 45237  53.0510  51.5722 0004165  28.1874 331.9356 15.44521086333594
STARLINK-1279,45360,53.0451,0.0003034,15.54765981,400.77563275425655,404.89032533754016,1 45360U 20019A   26055.72310012  .00098896  00000+0  14502-2 0  9997,2 45360  53.0451 161.4852 0003034 149.3369 210.7819 15.54765981328653
STARLINK-1301,45361,53.0417,0.000402,15.61961267,379.2747045687229,384.7098485070601,1 45361U 20019B   26055.91668981  .00066765  00000+0  75158-3 0  9995,2 45361  53.0417 166.6322 0004020 165.7028  61.9428 15.61961267  5977
STARLINK-1262,45366,53.0908,0.0001634,15.15265618,519.0451005778077,521.2994680519223,1 45366U 20019G   26055.91668981  .00091109  00000+0  47419-2 0  9998,2 45366  53.0908 223.7449 0001634 101.9918 178.0604 15.15265618  5736
STARLINK-1273,45367,53.0526,3.45e-05,15.42912199,437.2844385216695,437.7547188255976,1 45367U 20019H   26055.71366185  .00042800  00000+0  96288-3 0  9991,2 45367  53.0526 216.4665 0000345 189.4882 170.6117 15.42912199327895
STARLINK-1276,45368,53.0541,0.000135,15.06398565,546.2810333610305,548.150878659153,1 45368U 20019J   26055.74702969 -.00000097  00000+0  12404-4 0  9991,2 45368  53.0541 224.7187 0001350  91.8552 268.2591 15.06398565327784
STARLINK-1277,45369,53.0525,5.56e-05,15.46406352,426.8705376906519,427.627296604639,1 45369U 20019K   26055.77839917  .00086550  00000+0  17111-2 0  9994,2 45369  53.0525 214.3394 0000556 323.3583  36.7386 15.46406352327931
STARLINK-1281,45370,53.0788,0.0001111,15.12834847,526.7923947499557,528.326840538396,1 45370U 20019L   26055.91668981  .00121501  00000+0  67363-2 0  9993,2 45370  53.0788 223.8823 0001111 138.4693 164.8002 15.12834847  5579
STARLINK-1300,45374,53.0755,0.0002333,15.12074666,528.2622998537508,531.4855777577977,1 45374U 20019Q   26055.91668981  .00132103  00000+0  74681-2 0  9998,2 45374  53.0755 223.9161 0002333  78.7402  86.0819 15.12074666  5783
STARLINK-1302,45375,53.0531,0.0002392,15.47468324,422.5079292968094,425.7621362372847,1 45375U 20019R   26055.80772309  .00033359  00000+0  64524-3 0  9996,2 45375  53.0531 213.5448 0002392 215.5442 144.5406 15.47468324327942
STARLINK-1304,45376,53.0536,0.0002657,15.45782169,427.27211472837826,430.8894702633097,1 45376U 20019S   26055.72447148  .00085510  00000+0  17273-2 0  9992,2 45376  53.0536 211.4296 0002657 200.3950 159.6950 15.45782169327963
STARLINK-1305,45377,53.0454,0.0004094,15.5024903,413.2168520331388,418.7798900749567,1 45377U 20019T   26055.69883931  .00089315  00000+0  15432-2 0  9995,2 45377  53.0454 194.7508 0004094 116.7917 243.3511 15.50249030328205
STARLINK-1319,45379,53.0457,0.0002416,15.56293023,396.75936317387095,400.0337841966757,1 45379U 20019V   26055.74164784  .00106030  00000+0  14681-2 0  9990,2 45379  53.0457 192.9257 0002416 142.3465 217.7715 15.56293023328231
STARLINK-1266,45383,53.0509,0.0001373,15.43285954,435.4834793126838,437.354756422651,1 45383U 20019Z   26055.65067188  .00018947  00000+0  42738-3 0  9999,2 45383  53.0509 194.9945 0001373 310.0252  50.0633 15.43285954328180
STARLINK-1267,45384,53.0512,0.0005215,15.47246852,421.2364093774695,428.3318561189262,1 45384U 20019AA  26055.51749472  .00096118  00000+0  18420-2 0  9994,2 45384  53.0512 190.0619 0005215 196.7868 163.2967 15.47246852328243
STARLINK-1272,45386,53.0439,0.0003062,15.53596268,404.15880205879057,408.31355219246234,1 45386U 20019AC  26055.62083064  .00103554  00000+0  15833-2 0  9994,2 45386  53.0439 172.9709 0003062 141.8855 218.2371 15.53596268328490
STARLINK-1274,45387,53.0277,0.0005809,15.45321244,426.4792246691686,434.3894228331037,1 45387U 20019AD  26055.53456509  .00037175  00000+0  77230-3 0  9998,2 45387  53.0277 165.7119 0005809 186.5143 173.5788 15.45321244328589
STARLINK-1280,45388,53.0429,0.0002596,15.63102001,376.9488239339544,380.4569752098123,1 45388U 20019AE  26055.91668981  .00105302  00000+0  11255-2 0  9992,2 45388  53.0429 185.1332 0002596 131.0846 106.7164 15.63102001  5921
STARLINK-1283,45389,53.0454,0.0006852,15.53352074,402.2980416646242,411.59632102674095,1 45389U 20019AF  26055.47896870  .00115320  00000+0  17742-2 0  9992,2 45389  53.0454 173.8525 0006852 187.8186 172.2718 15.53352074328470
STARLINK-1284,45390,53.052,5.44e-05,15.49237133,418.58671754508305,419.32624131564535,1 45390U 20019AG  26055.52866522  .00082909  00000+0  14866-2 0  9991,2 45390  53.0520 194.1904 0000544 266.7241  93.3705 15.49237133328184
STARLINK-1297,45395,53.0485,0.000146,15.51399947,411.64631748702413,413.6292237200396,1 45395U 20019AM  26055.81621803  .00083537  00000+0  13874-2 0  9995,2 45395  53.0485 192.7290 0001460 325.0869  35.0043 15.51399947327412
STARLINK-1307,45397,53.0547,8.18e-05,15.49237316,418.39994196710813,419.5119463727742,1 45397U 20019AP  26055.65485601  .00025724  00000+0  47019-3 0  9996,2 45397  53.0547 193.2474 0000818  69.9086 290.2010 15.49237316328030
